OBJECT_NAME,OBJECT_ID,EPOCH,MEAN_MOTION,ECCENTRICITY,INCLINATION,RA_OF_ASC_NODE,ARG_OF_PERICENTER,MEAN_ANOMALY,EPHEMERIS_TYPE,CLASSIFICATION_TYPE,NORAD_CAT_ID,ELEMENT_SET_NO,REV_AT_EPOCH,BSTAR,MEAN_MOTION_DOT,MEAN_MOTION_DDOT
OSCAR 7 (AO-7),1974-089B,2026-06-10T06:45:47.158848,12.53697951,.0012501,101.9901,174.4563,142.9960,284.8697,0,U,7530,999,35965,.84572785E-4,-.33E-6,0
PHASE 3B (AO-10),1983-058B,2026-06-07T04:08:14.383680,2.05872980,.60142661,25.9048,221.2242,112.9115,319.2048,0,U,14129,999,29528,0,-.194E-5,0
UOSAT 2 (UO-11),1984-021B,2026-06-10T04:10:08.710752,14.90765931,.00069809,97.8055,126.8269,196.0557,164.0441,0,U,14781,999,25608,.12370125E-3,.116E-4,0
LUSAT (LO-19),1990-005G,2026-06-10T06:35:47.535072,14.34121055,.00107634,98.8852,182.8898,222.5115,137.5236,0,U,20442,999,90140,.51816867E-4,.98E-6,0
EYESAT A (AO-27),1993-061C,2026-06-10T03:32:09.429504,14.30940402,.00094263,98.6880,228.5632,118.0605,242.1532,0,U,22825,999,70599,.46307146E-4,.77E-6,0
ITAMSAT (IO-26),1993-061D,2026-06-09T22:03:33.181056,14.31366980,.00100491,98.6830,228.2517,103.8497,256.3805,0,U,22826,999,70627,.46307575E-4,.78E-6,0
RADIO ROSTO (RS15),1994-085A,2026-06-10T02:37:44.546304,11.27583633,.01557324,64.8187,314.6628,5.1852,355.0642,0,U,23439,999,29510,.14461965E-3,-.37E-6,0
JAS-2 (FO-29),1996-046B,2026-06-10T06:53:43.027584,13.53273805,.03508028,98.5246,11.1047,114.2893,249.5306,0,U,24278,999,47223,.34886049E-4,.2E-7,0
TECHSAT 1B (GO-32),1998-043D,2026-06-09T23:16:34.532832,14.24427022,.00006434,99.0065,153.5465,181.5466,178.5710,0,U,25397,999,45030,.45251412E-4,.58E-6,0
ISS (ZARYA),1998-067A,2026-06-10T03:47:59.654112,15.49693861,.00067462,51.6328,334.8807,152.8443,207.2900,0,U,25544,999,57066,.14375612E-3,.7673E-4,0
PCSAT (NO-44),2001-043C,2026-06-10T00:50:30.883488,14.31953587,.00061022,67.0511,262.7700,264.3538,95.6869,0,U,26931,999,28942,.59020005E-4,.75E-6,0
SAUDISAT 1C (SO-50),2002-058C,2026-06-09T16:05:11.410944,14.83030513,.00754288,64.5504,152.2423,263.8699,95.3809,0,U,27607,999,26334,.13084659E-3,.963E-5,0
CUTE-1 (CO-55),2003-031E,2026-06-10T07:02:25.997280,14.24331486,.00090624,98.6735,169.9388,198.4654,161.6197,0,U,27844,999,19069,.12934973E-3,.255E-5,0
CUBESAT XI-IV (CO-57),2003-031J,2026-06-10T06:40:50.082816,14.23617138,.00086242,98.6767,169.6423,218.4782,141.5782,0,U,27848,999,19039,.11264294E-3,.213E-5,0
MOZHAETS 4 (RS22),2003-042A,2026-06-10T07:23:12.084000,14.73454760,.00101069,98.3476,345.4724,294.2400,245.0545,0,U,27939,999,21453,.12448128E-3,.754E-5,0
CUBESAT XI-V,2005-043F,2026-06-09T09:14:13.585344,14.72610450,.00131651,98.2976,315.8433,226.6554,133.3557,0,U,28895,999,10060,.21228388E-3,.13E-4,0
CUTE-1.7+APD II (CO-65),2008-021C,2026-06-10T05:19:25.663584,15.09387299,.00103317,97.8272,142.4955,59.3713,300.8533,0,U,32785,999,98414,.32386518E-3,.5114E-4,0
SEEDS II (CO-66),2008-021J,2026-06-09T22:53:26.138400,15.32504530,.00021769,97.7518,158.5073,26.7954,333.3399,0,U,32791,999,98618,.57102739E-3,.17862E-3,0
YUBILEINY (RS30),2008-025A,2026-06-10T06:11:16.396224,12.43178836,.00191396,82.5050,359.7516,329.4928,30.5037,0,U,32953,999,81883,.2579538E-5,.1E-6,0
KKS-1 (KISEKI),2009-002H,2026-06-10T04:08:33.656064,14.83105969,.00069405,98.1193,83.5038,322.3486,37.7241,0,U,33499,999,93515,.1534346E-3,.1194E-4,0
SWISSCUBE,2009-051B,2026-06-09T17:04:01.608672,14.62467613,.00055621,98.4042,68.4691,230.1201,129.9511,0,U,35932,999,88806,.19187016E-3,.922E-5,0
BEESAT-1,2009-051C,2026-06-09T23:46:18.750720,14.61708937,.00039263,98.3972,68.4038,245.5037,114.5754,0,U,35933,999,88813,.1560043E-3,.728E-5,0
ITUPSAT1,2009-051E,2026-06-09T23:24:07.439040,14.60430038,.00061248,98.4056,67.5878,261.1078,98.9428,0,U,35935,999,88768,.14898186E-3,.673E-5,0
XIWANG-1 (HOPE-1),2009-072B,2026-06-10T06:02:49.662816,13.16437827,.00068036,100.4021,115.1947,249.1811,110.8574,0,U,36122,999,79209,-.49508422E-3,-.233E-5,0
O/OREOS (USA 219),2010-062C,2026-06-10T03:56:33.382464,14.93714320,.00124009,71.9705,96.2464,78.4284,281.8278,0,U,37224,999,11559,.20539697E-3,.2115E-4,0
JUGNU,2011-058B,2026-06-10T06:10:14.789568,14.13774890,.00185618,19.9621,350.5295,359.9630,156.5973,0,U,37839,999,75804,.69140643E-4,.399E-5,0
SRMSAT,2011-058D,2026-06-10T03:29:26.928384,14.11574082,.00119314,19.9712,102.0891,126.5108,263.2638,0,U,37841,999,75682,.51118913E-4,.359E-5,0
STRAND-1,2013-009E,2026-06-10T05:35:36.828960,14.37159178,.00074663,98.3921,341.6387,249.0407,110.9981,0,U,39090,999,69606,.10110104E-3,.258E-5,0
ZACUBE-1 (TSHEPISOSAT),2013-066B,2026-06-10T03:24:07.668288,15.01145439,.00401131,97.8088,123.4403,272.4357,87.2274,0,U,39417,999,67967,.25692287E-3,.3283E-4,0
GOMX-1,2013-066Q,2026-06-10T07:24:11.599776,14.69432909,.013016,97.6495,2.2054,99.3688,262.2261,0,U,39430,999,66890,.22233134E-3,.1449E-4,0
